NORAD_CAT_ID,OBJECT_NAME,OBJECT_TYPE,EPOCH,MEAN_MOTION,ECCENTRICITY,INCLINATION,RA_OF_ASC_NODE,ARG_OF_PERICENTER,MEAN_ANOMALY,BSTAR,MEAN_MOTION_DOT,MEAN_MOTION_DDOT,TLE_LINE0,TLE_LINE1,TLE_LINE2,SEMIMAJOR_AXIS,PERIOD,APOGEE,PERIGEE,DECAYED
54074.0,STARLINK-5192,PAYLOAD,2024-08-02 22:39:31,15.08827746,0.0001309,53.2162,84.2751,98.3907,261.7233,-0.00016299,-2.88e-05,0.0,0 STARLINK-5192,1 54074U 22136Z   24215.94410960 -.00002880  00000-0 -16299-3 0  9991,2 54074  53.2162  84.2751 0001309  98.3907 261.7233 15.08827746 98725,6917.918,95.438,540.688,538.877,0.0
54074.0,STARLINK-5192,PAYLOAD,2024-08-03 08:11:50,15.08836559,0.0001352,53.2158,82.4907,86.8327,273.2819,0.0010377,0.00016264,0.0,0 STARLINK-5192,1 54074U 22136Z   24216.34155455  .00016264  00000-0  10377-2 0  9990,2 54074  53.2158  82.4907 0001352  86.8327 273.2819 15.08836559 99269,6917.891,95.438,540.691,538.821,0.0
54074.0,STARLINK-5192,PAYLOAD,2024-08-03 22:30:18,15.08851379,0.0001388,53.2158,79.8145,84.5121,275.6029,0.0011881,0.00018677,0.0,0 STARLINK-5192,1 54074U 22136Z   24216.93771661  .00018677  00000-0  11881-2 0  9999,2 54074  53.2158  79.8145 0001388  84.5121 275.6029 15.08851379 98871,6917.846,95.437,540.671,538.75,0.0
54074.0,STARLINK-5192,PAYLOAD,2024-08-04 14:24:09,15.08858133,0.0002156,53.2155,76.8408,86.1567,273.9672,0.00083209,0.00012986,0.0,0 STARLINK-5192,1 54074U 22136Z   24217.60011412  .00012986  00000-0  83209-3 0  9996,2 54074  53.2155  76.8408 0002156  86.1567 273.9672 15.08858133 98974,6917.825,95.436,541.181,538.198,0.0
54074.0,STARLINK-5192,PAYLOAD,2024-08-04 20:45:42,15.08864217,0.0001133,53.2148,75.6509,96.937,263.1751,0.0025709,0.00040893,0.0,0 STARLINK-5192,1 54074U 22136Z   24217.86507164  .00040893  00000-0  25709-2 0  9996,2 54074  53.2148  75.6509 0001133  96.9370 263.1751 15.08864217 99497,6917.806,95.436,540.455,538.888,0.0
54074.0,STARLINK-5192,PAYLOAD,2024-08-04 22:21:05,15.08870196,0.0001152,53.215,75.3537,96.1951,263.9172,0.0029874,0.00047617,0.0,0 STARLINK-5192,1 54074U 22136Z   24217.93131046  .00047617  00000-0  29874-2 0  9994,2 54074  53.2150  75.3537 0001152  96.1951 263.9172 15.08870196 99023,6917.788,95.436,540.45,538.856,0.0
54074.0,STARLINK-5192,PAYLOAD,2024-08-05 20:36:29,15.08832958,0.0001474,53.2156,71.1875,95.509,264.607,0.00013534,1.866e-05,0.0,0 STARLINK-5192,1 54074U 22136Z   24218.85867420  .00001866  00000-0  13534-3 0  9991,2 54074  53.2156  71.1875 0001474  95.5090 264.6070 15.08832958 99649,6917.902,95.438,540.787,538.747,0.0
54074.0,STARLINK-5192,PAYLOAD,2024-08-06 14:05:44,15.08838042,0.0001786,53.2175,67.9168,99.2961,260.8233,0.00061433,9.502e-05,0.0,0 STARLINK-5192,1 54074U 22136Z   24219.58731947  .00009502  00000-0  61433-3 0  9992,2 54074  53.2175  67.9168 0001786  99.2961 260.8233 15.08838042 99270,6917.886,95.438,540.987,538.516,0.0
54074.0,STARLINK-5192,PAYLOAD,2024-08-06 20:27:16,15.08841558,0.0001671,53.2171,66.7281,95.9875,264.1307,0.00055509,8.558e-05,0.0,0 STARLINK-5192,1 54074U 22136Z   24219.85227936  .00008558  00000-0  55509-3 0  9997,2 54074  53.2171  66.7281 0001671  95.9875 264.1307 15.08841558 99319,6917.876,95.437,540.897,538.585,0.0
54074.0,STARLINK-5192,PAYLOAD,2024-08-07 18:42:40,15.08850634,0.0001594,53.2176,62.5661,92.2621,267.8554,0.00040206,6.118e-05,0.0,0 STARLINK-5192,1 54074U 22136Z   24220.77963577  .00006118  00000-0  40206-3 0  9996,2 54074  53.2176  62.5661 0001594  92.2621 267.8554 15.08850634 99930,6917.848,95.437,540.816,538.61,0.0
54074.0,STARLINK-5192,PAYLOAD,2024-08-08 21:44:13,15.08846226,0.0001366,53.2163,57.508,101.9818,258.1328,0.00011045,1.471e-05,0.0,0 STARLINK-5192,1 54074U 22136Z   24221.90571213  .00001471  00000-0  11045-3 0  9990,2 54074  53.2163  57.5080 0001366 101.9818 258.1328 15.08846226100104,6917.861,95.437,540.671,538.781,0.0
54074.0,STARLINK-5192,PAYLOAD,2024-08-09 05:41:08,15.08857575,0.0001094,53.2158,56.0242,86.7248,273.3869,0.00025994,3.853e-05,0.0,0 STARLINK-5192,1 54074U 22136Z   24222.23690425  .00003853  00000-0  25994-3 0  9998,2 54074  53.2158  56.0242 0001094  86.7248 273.3869 15.08857575100150,6917.827,95.436,540.448,538.935,0.0
54074.0,STARLINK-5192,PAYLOAD,2024-08-09 13:38:04,15.08853677,0.0003033,53.2167,54.5369,82.8328,277.3009,0.00020501,2.977e-05,0.0,0 STARLINK-5192,1 54074U 22136Z   24222.56811081  .00002977  00000-0  20501-3 0  9992,2 54074  53.2167  54.5369 0003033  82.8328 277.3009 15.08853677 99723,6917.839,95.437,541.802,537.605,0.0
54074.0,STARLINK-5192,PAYLOAD,2024-08-09 19:59:37,15.08837744,0.0001134,53.2159,53.3457,75.353,284.7588,1.7154e-06,-2.61e-06,0.0,0 STARLINK-5192,1 54074U 22136Z   24222.83307535 -.00000261  00000-0  17154-5 0  9993,2 54074  53.2159  53.3457 0001134  75.3530 284.7588 15.08837744100242,6917.887,95.438,540.537,538.968,0.0
54074.0,STARLINK-5192,PAYLOAD,2024-08-09 21:35:00,15.08842101,0.0001206,53.2167,53.0477,77.4917,282.621,8.8867e-05,1.127e-05,0.0,0 STARLINK-5192,1 54074U 22136Z   24222.89931513  .00001127  00000-0  88867-4 0  9997,2 54074  53.2167  53.0477 0001206  77.4917 282.6210 15.08842101 99779,6917.874,95.437,540.573,538.905,0.0
54074.0,STARLINK-5192,PAYLOAD,2024-08-09 23:10:23,15.08841306,0.0001203,53.2166,52.7502,77.2641,282.8486,8.329e-05,1.038e-05,0.0,0 STARLINK-5192,1 54074U 22136Z   24222.96555442  .00001038  00000-0  83290-4 0  9994,2 54074  53.2166  52.7502 0001203  77.2641 282.8486 15.08841306 99786,6917.876,95.437,540.574,538.909,0.0
54074.0,STARLINK-5192,PAYLOAD,2024-08-10 19:50:25,15.08841334,0.000127,53.2174,48.8843,71.98,288.133,0.00013601,1.877e-05,0.0,0 STARLINK-5192,1 54074U 22136Z   24223.82667901  .00001877  00000-0  13601-3 0  9993,2 54074  53.2174  48.8843 0001270  71.9800 288.1330 15.08841334 99914,6917.876,95.437,540.62,538.863,0.0
54074.0,STARLINK-5192,PAYLOAD,2024-08-11 05:22:42,15.08859482,0.0001197,53.2163,47.1027,68.2335,291.8785,0.00046913,7.19e-05,0.0,0 STARLINK-5192,1 54074U 22136Z   24224.22410878  .00007190  00000-0  46913-3 0  9993,2 54074  53.2163  47.1027 0001197  68.2335 291.8785 15.08859482100458,6917.821,95.436,540.514,538.858,0.0
54074.0,STARLINK-5192,PAYLOAD,2024-08-11 21:16:35,15.08836188,0.0001759,53.217,44.1268,77.5918,282.5271,9.0748e-05,1.156e-05,0.0,0 STARLINK-5192,1 54074U 22136Z   24224.88652249  .00001156  00000-0  90748-4 0  9997,2 54074  53.2170  44.1268 0001759  77.5918 282.5271 15.08836188100077,6917.892,95.438,540.974,538.54,0.0
54074.0,STARLINK-5192,PAYLOAD,2024-08-12 05:13:30,15.08853879,0.0001102,53.2169,42.6404,91.709,268.4028,0.00036772,5.571e-05,0.0,0 STARLINK-5192,1 54074U 22136Z   24225.21771264  .00005571  00000-0  36772-3 0  9995,2 54074  53.2169  42.6404 0001102  91.7090 268.4028 15.08853879100609,6917.838,95.437,540.465,538.941,0.0
54074.0,STARLINK-5192,PAYLOAD,2024-08-12 11:35:04,15.08820782,0.0001046,53.2177,41.4472,142.018,218.0886,-0.00023675,-4.052e-05,0.0,0 STARLINK-5192,1 54074U 22136Z   24225.48269235 -.00004052  00000-0 -23675-3 0  9997,2 54074  53.2177  41.4472 0001046 142.0180 218.0886 15.08820782100641,6917.939,95.439,540.528,539.081,0.0
54074.0,STARLINK-5192,PAYLOAD,2024-08-12 19:31:58,15.08860097,0.0001327,53.216,39.9642,101.4817,258.6324,0.00085528,0.00013357,0.0,0 STARLINK-5192,1 54074U 22136Z   24225.81387559  .00013357  00000-0  85528-3 0  9995,2 54074  53.2160  39.9642 0001327 101.4817 258.6324 15.08860097100697,6917.819,95.436,540.602,538.766,0.0
54074.0,STARLINK-5192,PAYLOAD,2024-08-13 11:25:51,15.08803741,0.0002625,53.2101,36.9899,83.2618,276.8673,-0.0010632,-0.00017154,0.0,0 STARLINK-5192,1 54074U 22136Z   24226.47628987 -.00017154  00000-0 -10632-2 0  9995,2 54074  53.2101  36.9899 0002625  83.2618 276.8673 15.08803741100794,6917.991,95.44,541.672,538.04,0.0
54074.0,STARLINK-5192,PAYLOAD,2024-08-13 19:22:48,15.08790356,0.0002017,53.2134,35.5037,84.7418,275.3804,-0.00088559,-0.00014336,0.0,0 STARLINK-5192,1 54074U 22136Z   24226.80750092 -.00014336  00000-0 -88559-3 0  9998,2 54074  53.2134  35.5037 0002017  84.7418 275.3804 15.08790356100368,6918.032,95.441,541.293,538.502,0.0
54074.0,STARLINK-5192,PAYLOAD,2024-08-14 04:55:06,15.08826074,0.0001345,53.2157,33.7195,89.4538,270.6608,0.00048358,7.414e-05,0.0,0 STARLINK-5192,1 54074U 22136Z   24227.20494002  .00007414  00000-0  48358-3 0  9999,2 54074  53.2157  33.7195 0001345  89.4538 270.6608 15.08826074100903,6917.923,95.438,540.718,538.857,0.0
54074.0,STARLINK-5192,PAYLOAD,2024-08-14 14:27:25,15.0883448,0.0001301,53.2139,31.9403,52.8743,307.2367,0.00078559,0.00012235,0.0,0 STARLINK-5192,1 54074U 22136Z   24227.60238361  .00012235  00000-0  78559-3 0  9990,2 54074  53.2139  31.9403 0001301  52.8743 307.2367 15.08834480100481,6917.897,95.438,540.662,538.862,0.0
54074.0,STARLINK-5192,PAYLOAD,2024-08-14 17:38:12,15.08848485,0.0001322,53.2164,31.3411,79.1338,280.9802,0.0014084,0.00022203,0.0,0 STARLINK-5192,1 54074U 22136Z   24227.73486291  .00022203  00000-0  14084-2 0  9999,2 54074  53.2164  31.3411 0001322  79.1338 280.9802 15.08848485100501,6917.854,95.437,540.634,538.805,0.0
54074.0,STARLINK-5192,PAYLOAD,2024-08-15 17:28:58,15.08862178,0.0001373,53.2178,26.8792,81.1644,278.9504,0.00044879,6.866e-05,0.0,0 STARLINK-5192,1 54074U 22136Z   24228.72845052  .00006866  00000-0  44879-3 0  9996,2 54074  53.2178  26.8792 0001373  81.1644 278.9504 15.08862178101137,6917.813,95.436,540.627,538.728,0.0
54074.0,STARLINK-5192,PAYLOAD,2024-08-16 03:01:16,15.08869632,0.000137,53.2178,25.095,81.1451,278.9696,0.00061601,9.537e-05,0.0,0 STARLINK-5192,1 54074U 22136Z   24229.12588373  .00009537  00000-0  61601-3 0  9991,2 54074  53.2178  25.0950 0001370  81.1451 278.9696 15.08869632100714,6917.79,95.436,540.603,538.707,0.0
54074.0,STARLINK-5192,PAYLOAD,2024-08-17 20:21:18,15.08847125,8.03e-05,53.2161,17.3661,61.7659,298.3414,0.00053685,8.268e-05,0.0,0 STARLINK-5192,1 54074U 22136Z   24230.84812712  .00008268  00000-0  53685-3 0  9992,2 54074  53.2161  17.3661 0000803  61.7659 298.3414 15.08847125101452,6917.859,95.437,540.279,539.168,0.0
